---<?xml version="1.0" encoding="UTF-8"?>



<gpx version="1.1" creator="Gemini AI" xmlns="http://www.topografix.com/GPX/1/1">

  <metadata>

    <name>RAMADHAN GPS ART BANDUNG</name>

    <desc>Rute lari membentuk tulisan RAMADHAN di pusat kota Bandung</desc>

  </metadata>

  <trk>

    <name>Ramadhan Route</name>

    <trkseg>

      <trkpt lat="-6.9115" lon="107.6000"></trkpt>

      <trkpt lat="-6.9080" lon="107.6000"></trkpt>

      <trkpt lat="-6.9080" lon="107.6020"></trkpt>

      <trkpt lat="-6.9095" lon="107.6020"></trkpt>

      <trkpt lat="-6.9095" lon="107.6000"></trkpt>

      <trkpt lat="-6.9115" lon="107.6025"></trkpt>

      

      <trkpt lat="-6.9115" lon="107.6040"></trkpt>

      <trkpt lat="-6.9080" lon="107.6055"></trkpt>

      <trkpt lat="-6.9115" lon="107.6070"></trkpt>

      <trkpt lat="-6.9100" lon="107.6045"></trkpt>

      <trkpt lat="-6.9100" lon="107.6065"></trkpt>

      <trkpt lat="-6.9115" lon="107.6085"></trkpt>

      <trkpt lat="-6.9080" lon="107.6085"></trkpt>

      <trkpt lat="-6.9100" lon="107.6100"></trkpt>

      <trkpt lat="-6.9080" lon="107.6115"></trkpt>

      <trkpt lat="-6.9115" lon="107.6115"></trkpt>

      <trkpt lat="-6.9115" lon="107.6130"></trkpt>

      <trkpt lat="-6.9080" lon="107.6145"></trkpt>

      <trkpt lat="-6.9115" lon="107.6160"></trkpt>

      <trkpt lat="-6.9115" lon="107.6175"></trkpt>

      <trkpt lat="-6.9080" lon="107.6175"></trkpt>

      <trkpt lat="-6.9085" lon="107.6200"></trkpt>

      <trkpt lat="-6.9110" lon="107.6200"></trkpt>

      <trkpt lat="-6.9115" lon="107.6175"></trkpt>

      <trkpt lat="-6.9115" lon="107.6215"></trkpt>

      <trkpt lat="-6.9080" lon="107.6215"></trkpt>

      <trkpt lat="-6.9100" lon="107.6215"></trkpt>

      <trkpt lat="-6.9100" lon="107.6235"></trkpt>

      <trkpt lat="-6.9080" lon="107.6235"></trkpt>

      <trkpt lat="-6.9115" lon="107.6235"></trkpt>

      <trkpt lat="-6.9115" lon="107.6250"></trkpt>

      <trkpt lat="-6.9080" lon="107.6265"></trkpt>

      <trkpt lat="-6.9115" lon="107.6280"></trkpt>

      <trkpt lat="-6.9115" lon="107.6295"></trkpt>

      <trkpt lat="-6.9080" lon="107.6295"></trkpt>

      <trkpt lat="-6.9115" lon="107.6320"></trkpt>

      <trkpt lat="-6.9080" lon="107.6320"></trkpt>

    </trkseg>

  </trk>

</gpx>


title: File actions
---

<script lang="ts">
    import { Plus, FolderOpen, Copy, FileX, Download } from '@lucide/svelte';
    import DocsNote from '$lib/components/docs/DocsNote.svelte';
</script>

# { title }

The file actions menu contains a set of pretty self-explanatory file operations.

### <Plus size="16" class="inline-block" style="margin-bottom: 2px" /> New

Create a new empty file.

### <FolderOpen size="16" class="inline-block" style="margin-bottom: 2px" /> Open...

Open files from your computer. 

<DocsNote>

You can also drag and drop files directly from your file system into the window.

</DocsNote>

### <Copy size="16" class="inline-block" style="margin-bottom: 2px" /> Duplicate

Create a copy of the currently selected files.

### <FileX size="16" class="inline-block" style="margin-bottom: 2px" /> Delete

Delete the currently selected files.

### <FileX size="16" class="inline-block" style="margin-bottom: 2px" /> Delete all

Delete all files.

### <Download size="16" class="inline-block" style="margin-bottom: 2px" /> Export...

Open the export dialog to save the currently selected files to your computer.

### <Download size="16" class="inline-block" style="margin-bottom: 2px" /> Export all...

Open the export dialog to save all files to your computer.

<DocsNote type="warning">

If your download does not start after clicking the download button, please check your browser settings to allow downloads from <b>gpx.studio</b>.
    
</DocsNote>
